[{"OBJECT_NAME":"ONEWEB-0246","OBJECT_ID":"2021-045V","EPOCH":"2026-03-09T14:50:27.839328","MEAN_MOTION":13.15547783,"ECCENTRICITY":0.0001521,"INCLINATION":87.8949,"RA_OF_ASC_NODE":279.0614,"ARG_OF_PERICENTER":93.2608,"MEAN_ANOMALY":266.8696,"EPHEMERIS_TYPE":0,"CLASSIFICATION_TYPE":"U","NORAD_CAT_ID":48786,"ELEMENT_SET_NO":999,"REV_AT_EPOCH":23118,"BSTAR":-0.00030531,"MEAN_MOTION_DOT":-1.02e-6,"MEAN_MOTION_DDOT":0},{"OBJECT_NAME":"SL-24 R\/B","OBJECT_ID":"2014-033AP","EPOCH":"2026-03-09T15:31:57.229824","MEAN_MOTION":13.61950469,"ECCENTRICITY":0.0567157,"INCLINATION":97.884,"RA_OF_ASC_NODE":305.8207,"ARG_OF_PERICENTER":198.076,"MEAN_ANOMALY":159.947,"EPHEMERIS_TYPE":0,"CLASSIFICATION_TYPE":"U","NORAD_CAT_ID":40047,"ELEMENT_SET_NO":999,"REV_AT_EPOCH":58248,"BSTAR":3.504e-5,"MEAN_MOTION_DOT":4.3e-7,"MEAN_MOTION_DDOT":0}]
